[{"OBJECT_NAME":"SJ-9A","OBJECT_ID":"2012-056A","EPOCH":"2026-03-09T22:26:58.349184","MEAN_MOTION":14.85226998,"ECCENTRICITY":0.00245132,"INCLINATION":97.6612,"RA_OF_ASC_NODE":44.5525,"ARG_OF_PERICENTER":221.6494,"MEAN_ANOMALY":138.2855,"EPHEMERIS_TYPE":0,"CLASSIFICATION_TYPE":"U","NORAD_CAT_ID":38860,"ELEMENT_SET_NO":999,"REV_AT_EPOCH":68485,"BSTAR":0.00020141045,"MEAN_MOTION_DOT":1.684e-5,"MEAN_MOTION_DDOT":0},{"OBJECT_NAME":"KINEIS-1A","OBJECT_ID":"2024-114F","EPOCH":"2026-03-09T23:45:50.090112","MEAN_MOTION":14.80439392,"ECCENTRICITY":0.00048167,"INCLINATION":97.9936,"RA_OF_ASC_NODE":93.6517,"ARG_OF_PERICENTER":91.725,"MEAN_ANOMALY":268.4514,"EPHEMERIS_TYPE":0,"CLASSIFICATION_TYPE":"U","NORAD_CAT_ID":60084,"ELEMENT_SET_NO":999,"REV_AT_EPOCH":9271,"BSTAR":0.00016296213,"MEAN_MOTION_DOT":1.193e-5,"MEAN_MOTION_DDOT":0}]
